NORAD_CAT_ID,OBJECT_NAME,OBJECT_TYPE,EPOCH,MEAN_MOTION,ECCENTRICITY,INCLINATION,RA_OF_ASC_NODE,ARG_OF_PERICENTER,MEAN_ANOMALY,BSTAR,MEAN_MOTION_DOT,MEAN_MOTION_DDOT,TLE_LINE0,TLE_LINE1,TLE_LINE2,SEMIMAJOR_AXIS,PERIOD,APOGEE,PERIGEE,DECAYED
54768.0,STARLINK-5444,PAYLOAD,2024-07-12 18:47:17,15.08837922,0.0001284,53.2151,225.0401,88.8077,271.3062,4.9984e-05,5.08e-06,0.0,0 STARLINK-5444,1 54768U 22175L   24194.78283638  .00000508  00000-0  49984-4 0  9993,2 54768  53.2151 225.0401 0001284  88.8077 271.3062 15.08837922 88806,6917.887,95.438,540.64,538.863,0.0
54768.0,STARLINK-5444,PAYLOAD,2024-07-13 12:16:31,15.08840354,0.0001336,53.2155,221.7692,87.5318,272.5827,5.521e-05,5.91e-06,0.0,0 STARLINK-5444,1 54768U 22175L   24195.51147584  .00000591  00000-0  55210-4 0  9995,2 54768  53.2155 221.7692 0001336  87.5318 272.5827 15.08840354 88914,6917.879,95.438,540.669,538.82,0.0
54768.0,STARLINK-5444,PAYLOAD,2024-07-13 18:38:04,15.08838506,0.0001292,53.2153,220.5794,85.8444,274.2696,6.3027e-05,7.15e-06,0.0,0 STARLINK-5444,1 54768U 22175L   24195.77643696  .00000715  00000-0  63027-4 0  9991,2 54768  53.2153 220.5794 0001292  85.8444 274.2696 15.08838506 86797,6917.885,95.438,540.644,538.856,0.0
54768.0,STARLINK-5444,PAYLOAD,2024-07-14 10:31:55,15.08838755,0.0001362,53.2156,217.606,87.3938,272.721,4.0235e-05,3.52e-06,0.0,0 STARLINK-5444,1 54768U 22175L   24196.43883923  .00000352  00000-0  40235-4 0  9997,2 54768  53.2156 217.6060 0001362  87.3938 272.7210 15.08838755 89059,6917.884,95.438,540.691,538.807,0.0
54768.0,STARLINK-5444,PAYLOAD,2024-07-14 18:28:51,15.08839016,0.0001371,53.2158,216.1191,87.3931,272.7218,5.618e-05,6.06e-06,0.0,0 STARLINK-5444,1 54768U 22175L   24196.77003898  .00000606  00000-0  56180-4 0  9997,2 54768  53.2158 216.1191 0001371  87.3931 272.7218 15.08839016 89108,6917.883,95.438,540.697,538.8,0.0
54768.0,STARLINK-5444,PAYLOAD,2024-07-15 05:36:33,15.08840716,0.0001373,53.2158,214.0376,88.1497,271.9652,7.6198e-05,9.25e-06,0.0,0 STARLINK-5444,1 54768U 22175L   24197.23371795  .00000925  00000-0  76198-4 0  9998,2 54768  53.2158 214.0376 0001373  88.1497 271.9652 15.08840716 87018,6917.878,95.438,540.693,538.793,0.0
54768.0,STARLINK-5444,PAYLOAD,2024-07-15 10:22:42,15.0884375,0.0001368,53.2157,213.1454,87.7056,272.4093,7.6035e-05,9.22e-06,0.0,0 STARLINK-5444,1 54768U 22175L   24197.43243601  .00000922  00000-0  76035-4 0  9991,2 54768  53.2157 213.1454 0001368  87.7056 272.4093 15.08843750 89203,6917.869,95.437,540.68,538.788,0.0
54768.0,STARLINK-5444,PAYLOAD,2024-07-15 18:19:38,15.0883794,0.0001382,53.2156,211.6581,85.3397,274.7753,2.7512e-05,1.5e-06,0.0,0 STARLINK-5444,1 54768U 22175L   24197.76364133  .00000150  00000-0  27512-4 0  9990,2 54768  53.2156 211.6581 0001382  85.3397 274.7753 15.08837940 89251,6917.887,95.438,540.708,538.796,0.0
54768.0,STARLINK-5444,PAYLOAD,2024-07-16 05:27:20,15.08836153,0.0001417,53.2158,209.5752,86.5074,273.6081,5.6477e-05,6.11e-06,0.0,0 STARLINK-5444,1 54768U 22175L   24198.22732202  .00000611  00000-0  56477-4 0  9992,2 54768  53.2158 209.5752 0001417  86.5074 273.6081 15.08836153 87168,6917.892,95.438,540.737,538.777,0.0
54768.0,STARLINK-5444,PAYLOAD,2024-07-16 10:13:29,15.08838495,0.0001349,53.2154,208.683,87.9985,272.1162,4.6895e-05,4.58e-06,0.0,0 STARLINK-5444,1 54768U 22175L   24198.42604088  .00000458  00000-0  46895-4 0  9996,2 54768  53.2154 208.6830 0001349  87.9985 272.1162 15.08838495 89359,6917.885,95.438,540.683,538.817,0.0
54768.0,STARLINK-5444,PAYLOAD,2024-07-17 10:04:16,15.08842731,0.000135,53.2154,204.2218,89.7938,270.3209,4.6267e-05,4.49e-06,0.0,0 STARLINK-5444,1 54768U 22175L   24199.41963810  .00000449  00000-0  46267-4 0  9990,2 54768  53.2154 204.2218 0001350  89.7938 270.3209 15.08842731 87348,6917.872,95.437,540.671,538.803,0.0
54768.0,STARLINK-5444,PAYLOAD,2024-07-18 06:44:17,15.0884351,0.0001346,53.2153,200.3561,90.6332,269.4814,0.00010023,1.308e-05,0.0,0 STARLINK-5444,1 54768U 22175L   24200.28075706  .00001308  00000-0  10023-3 0  9991,2 54768  53.2153 200.3561 0001346  90.6332 269.4814 15.08843510 89630,6917.87,95.437,540.666,538.804,0.0
54768.0,STARLINK-5444,PAYLOAD,2024-07-19 04:59:41,15.08839455,0.0001384,53.2156,196.1943,91.5577,268.5573,2.4722e-05,1.06e-06,0.0,0 STARLINK-5444,1 54768U 22175L   24201.20812205  .00000106  00000-0  24722-4 0  9994,2 54768  53.2156 196.1943 0001384  91.5577 268.5573 15.08839455 87613,6917.882,95.438,540.704,538.79,0.0
54768.0,STARLINK-5444,PAYLOAD,2024-07-19 06:35:04,15.08840091,0.0001379,53.2156,195.8971,91.2531,268.8619,2.64e-05,1.32e-06,0.0,0 STARLINK-5444,1 54768U 22175L   24201.27436148  .00000132  00000-0  26400-4 0  9993,2 54768  53.2156 195.8971 0001379  91.2531 268.8619 15.08840091 89783,6917.88,95.438,540.699,538.791,0.0
54768.0,STARLINK-5444,PAYLOAD,2024-07-19 16:07:23,15.08839199,0.0001382,53.2157,194.1131,90.6985,269.4165,1.303e-05,-8.1e-07,0.0,0 STARLINK-5444,1 54768U 22175L   24201.67180166 -.00000081  00000-0  13030-4 0  9992,2 54768  53.2157 194.1131 0001382  90.6985 269.4165 15.08839199 89841,6917.883,95.438,540.704,538.792,0.0
54768.0,STARLINK-5444,PAYLOAD,2024-07-20 06:25:51,15.08838882,0.0001475,53.2168,191.4386,93.3499,266.7662,2.7746e-05,1.54e-06,0.0,0 STARLINK-5444,1 54768U 22175L   24202.26796247  .00000154  00000-0  27746-4 0  9990,2 54768  53.2168 191.4386 0001475  93.3499 266.7662 15.08838882 87778,6917.884,95.438,540.769,538.728,0.0
54768.0,STARLINK-5444,PAYLOAD,2024-07-20 15:58:10,15.08836653,0.0001463,53.2169,189.6544,91.1177,268.9983,2.4909e-05,1.08e-06,0.0,0 STARLINK-5444,1 54768U 22175L   24202.66540501  .00000108  00000-0  24909-4 0  9991,2 54768  53.2169 189.6544 0001463  91.1177 268.9983 15.08836653 89990,6917.891,95.438,540.768,538.744,0.0
54768.0,STARLINK-5444,PAYLOAD,2024-07-21 06:16:38,15.08839739,0.0001436,53.2165,186.9789,96.8385,263.277,8.1389e-05,1.008e-05,0.0,0 STARLINK-5444,1 54768U 22175L   24203.26156219  .00001008  00000-0  81389-4 0  9992,2 54768  53.2165 186.9789 0001436  96.8385 263.2770 15.08839739 90082,6917.881,95.438,540.74,538.753,0.0
54768.0,STARLINK-5444,PAYLOAD,2024-07-22 04:32:03,15.08836236,0.0001409,53.216,182.8161,101.6585,258.4566,3.2823e-05,2.34e-06,0.0,0 STARLINK-5444,1 54768U 22175L   24204.18892800  .00000234  00000-0  32823-4 0  9996,2 54768  53.2160 182.8161 0001409 101.6585 258.4566 15.08836236 88066,6917.892,95.438,540.732,538.782,0.0
54768.0,STARLINK-5444,PAYLOAD,2024-07-22 07:42:49,15.08839178,0.0001391,53.2159,182.2214,101.736,258.3788,5.4595e-05,5.81e-06,0.0,0 STARLINK-5444,1 54768U 22175L   24204.32140566  .00000581  00000-0  54595-4 0  9992,2 54768  53.2159 182.2214 0001391 101.7360 258.3788 15.08839178 90245,6917.883,95.438,540.71,538.786,0.0
54768.0,STARLINK-5444,PAYLOAD,2024-07-22 22:01:17,15.08840039,0.0001306,53.2165,179.5435,93.7568,266.3573,7.2453e-05,8.65e-06,0.0,0 STARLINK-5444,1 54768U 22175L   24204.91756516  .00000865  00000-0  72453-4 0  9993,2 54768  53.2165 179.5435 0001306  93.7568 266.3573 15.08840039 90331,6917.88,95.438,540.649,538.842,0.0
54768.0,STARLINK-5444,PAYLOAD,2024-07-23 04:22:49,15.0884697,0.0001359,53.2161,178.3533,92.0885,268.0263,6.468e-05,7.42e-06,0.0,0 STARLINK-5444,1 54768U 22175L   24205.18252145  .00000742  00000-0  64680-4 0  9999,2 54768  53.2161 178.3533 0001359  92.0885 268.0263 15.08846970 88214,6917.859,95.437,540.664,538.784,0.0
54768.0,STARLINK-5444,PAYLOAD,2024-07-23 15:30:32,15.08838724,0.0001418,53.2161,176.2733,89.9008,270.2146,6.2261e-05,7.03e-06,0.0,0 STARLINK-5444,1 54768U 22175L   24205.64620677  .00000703  00000-0  62261-4 0  9999,2 54768  53.2161 176.2733 0001418  89.9008 270.2146 15.08838724 88281,6917.884,95.438,540.73,538.768,0.0
54768.0,STARLINK-5444,PAYLOAD,2024-07-23 21:52:05,15.08835998,0.000134,53.2144,175.0867,100.1541,259.9602,-3.1974e-06,-3.39e-06,0.0,0 STARLINK-5444,1 54768U 22175L   24205.91117110 -.00000339  00000-0 -31974-5 0  9997,2 54768  53.2144 175.0867 0001340 100.1541 259.9602 15.08835998 90485,6917.893,95.438,540.685,538.831,0.0
54768.0,STARLINK-5444,PAYLOAD,2024-07-24 04:13:38,15.08830548,0.0001532,53.2165,173.8932,93.9837,266.133,-2.7304e-05,-7.22e-06,0.0,0 STARLINK-5444,1 54768U 22175L   24206.17613722 -.00000722  00000-0 -27304-4 0  9993,2 54768  53.2165 173.8932 0001532  93.9837 266.1330 15.08830548 88365,6917.909,95.438,540.834,538.714,0.0
54768.0,STARLINK-5444,PAYLOAD,2024-07-24 07:24:24,15.08835539,0.000134,53.2153,173.2964,118.1169,241.9959,1.0044e-06,-2.72e-06,0.0,0 STARLINK-5444,1 54768U 22175L   24206.30861188 -.00000272  00000-0  10044-5 0  9992,2 54768  53.2153 173.2964 0001340 118.1169 241.9959 15.08835539 90542,6917.894,95.438,540.686,538.832,0.0
54768.0,STARLINK-5444,PAYLOAD,2024-07-25 04:04:24,15.08848131,0.0001554,53.2169,169.432,102.561,257.5556,6.1821e-05,6.96e-06,0.0,0 STARLINK-5444,1 54768U 22175L   24207.16972447  .00000696  00000-0  61821-4 0  9995,2 54768  53.2169 169.4320 0001554 102.5610 257.5556 15.08848131 88519,6917.856,95.437,540.796,538.646,0.0
54768.0,STARLINK-5444,PAYLOAD,2024-07-26 03:55:11,15.08838902,0.0001506,53.2171,164.9715,79.2071,280.9091,9.1624e-05,1.17e-05,0.0,0 STARLINK-5444,1 54768U 22175L   24208.16333183  .00001170  00000-0  91624-4 0  9996,2 54768  53.2171 164.9715 0001506  79.2071 280.9091 15.08838902 88663,6917.884,95.438,540.791,538.707,0.0
54768.0,STARLINK-5444,PAYLOAD,2024-07-26 07:05:58,15.088404,0.0001492,53.2169,164.3763,77.1866,282.9293,9.6556e-05,1.249e-05,0.0,0 STARLINK-5444,1 54768U 22175L   24208.29581083  .00001249  00000-0  96556-4 0  9990,2 54768  53.2169 164.3763 0001492  77.1866 282.9293 15.08840400 90845,6917.879,95.438,540.776,538.712,0.0
54768.0,STARLINK-5444,PAYLOAD,2024-07-27 03:45:58,15.08848102,0.0001556,53.2168,160.5107,90.4482,269.6689,6.57e-05,7.58e-06,0.0,0 STARLINK-5444,1 54768U 22175L   24209.15692403  .00000758  00000-0  65700-4 0  9996,2 54768  53.2168 160.5107 0001556  90.4482 269.6689 15.08848102 88819,6917.856,95.437,540.797,538.644,0.0
